[{"OBJECT_NAME":"STARLINK-30761","OBJECT_ID":"2023-162S","EPOCH":"2026-03-09T22:00:01.999584","MEAN_MOTION":15.22487604,"ECCENTRICITY":0.00012558,"INCLINATION":43.0005,"RA_OF_ASC_NODE":131.2641,"ARG_OF_PERICENTER":271.7524,"MEAN_ANOMALY":352.0491,"EPHEMERIS_TYPE":0,"CLASSIFICATION_TYPE":"U","NORAD_CAT_ID":58134,"ELEMENT_SET_NO":999,"REV_AT_EPOCH":577,"BSTAR":0.050104307,"MEAN_MOTION_DOT":0.01299241,"MEAN_MOTION_DDOT":0},{"OBJECT_NAME":"OBJECT V","OBJECT_ID":"2025-313V","EPOCH":"2026-03-09T22:24:14.678208","MEAN_MOTION":15.21825421,"ECCENTRICITY":0.00137871,"INCLINATION":97.401,"RA_OF_ASC_NODE":145.2021,"ARG_OF_PERICENTER":3.3713,"MEAN_ANOMALY":356.7614,"EPHEMERIS_TYPE":0,"CLASSIFICATION_TYPE":"U","NORAD_CAT_ID":67267,"ELEMENT_SET_NO":999,"REV_AT_EPOCH":1085,"BSTAR":0.00061746121,"MEAN_MOTION_DOT":0.00014007,"MEAN_MOTION_DDOT":0}]
